{
  "type": "FeatureCollection",
  "features": [
    {
      "type": "Feature",
      "properties": {
        "norad_id": 40376,
        "name": "SMAP",
        "group": "resource",
        "lat": 39.076809597832316,
        "lon": -1.7003846542244736,
        "alt_km": 678.8446816522637,
        "timestamp": "2025-12-26T10:30:49.916526+00:00",
        "meta_object_name": "SMAP",
        "meta_object_id": "2015-003A",
        "meta_epoch": "2025-12-26T03:46:10.515360",
        "meta_mean_motion": 14.63361123,
        "meta_eccentricity": 0.0001235,
        "meta_inclination": 98.1291,
        "meta_ra_of_asc_node": 4.6876,
        "meta_arg_of_pericenter": 92.6734,
        "meta_mean_anomaly": 267.4609,
        "meta_ephemeris_type": 0,
        "meta_classification_type": "U",
        "meta_norad_cat_id": 40376,
        "meta_element_set_no": 999,
        "meta_rev_at_epoch": 58231,
        "meta_bstar": 0.00011236,
        "meta_mean_motion_dot": 5.34e-06,
        "meta_mean_motion_ddot": 0,
        "tle_line1": "1 40376U 15003A   25360.15706615  .00000534  00000+0  11236-3 0  9993",
        "tle_line2": "2 40376  98.1291   4.6876 0001235  92.6734 267.4609 14.63361123582318"
      },
      "geometry": {
        "type": "Point",
        "coordinates": [
          -1.7003846542244736,
          39.076809597832316
        ]
      }
    },
    {
      "type": "Feature",
      "properties": {
        "norad_id": 40536,
        "name": "KOMPSAT-3A",
        "group": "resource",
        "lat": 67.2275193749765,
        "lon": 174.29962834151428,
        "alt_km": 422.73561053166577,
        "timestamp": "2025-12-26T10:30:49.916537+00:00",
        "meta_object_name": "KOMPSAT-3A",
        "meta_object_id": "2015-014A",
        "meta_epoch": "2025-12-26T05:22:06.339072",
        "meta_mean_motion": 15.4444275,
        "meta_eccentricity": 0.0005639,
        "meta_inclination": 97.6808,
        "meta_ra_of_asc_node": 335.3201,
        "meta_arg_of_pericenter": 98.2008,
        "meta_mean_anomaly": 261.9879,
        "meta_ephemeris_type": 0,
        "meta_classification_type": "U",
        "meta_norad_cat_id": 40536,
        "meta_element_set_no": 999,
        "meta_rev_at_epoch": 59503,
        "meta_bstar": 0.00044599,
        "meta_mean_motion_dot": 0.00020578,
        "meta_mean_motion_ddot": 0,
        "tle_line1": "1 40536U 15014A   25360.22368448  .00020578  00000+0  44599-3 0  9997",
        "tle_line2": "2 40536  97.6808 335.3201 0005639  98.2008 261.9879 15.44442750595035"
      },
      "geometry": {
        "type": "Point",
        "coordinates": [
          174.29962834151428,
          67.2275193749765
        ]
      }
    },
    {
      "type": "Feature",
      "properties": {
        "norad_id": 40697,
        "name": "SENTINEL-2A",
        "group": "resource",
        "lat": 71.96339707066447,
        "lon": -79.62516055028411,
        "alt_km": 781.3617966558768,
        "timestamp": "2025-12-26T10:30:49.916571+00:00",
        "meta_object_name": "SENTINEL-2A",
        "meta_object_id": "2015-028A",
        "meta_epoch": "2025-12-26T04:59:08.889792",
        "meta_mean_motion": 14.30810214,
        "meta_eccentricity": 0.0001036,
        "meta_inclination": 98.5725,
        "meta_ra_of_asc_node": 72.5516,
        "meta_arg_of_pericenter": 89.1077,
        "meta_mean_anomaly": 271.0224,
        "meta_ephemeris_type": 0,
        "meta_classification_type": "U",
        "meta_norad_cat_id": 40697,
        "meta_element_set_no": 999,
        "meta_rev_at_epoch": 54899,
        "meta_bstar": -2.8658e-06,
        "meta_mean_motion_dot": -5.1e-07,
        "meta_mean_motion_ddot": 0,
        "tle_line1": "1 40697U 15028A   25360.20774178 -.00000051  00000+0 -28658-5 0  9995",
        "tle_line2": "2 40697  98.5725  72.5516 0001036  89.1077 271.0224 14.30810214548999"
      },
      "geometry": {
        "type": "Point",
        "coordinates": [
          -79.62516055028411,
          71.96339707066447
        ]
      }
    },
    {
      "type": "Feature",
      "properties": {
        "norad_id": 40701,
        "name": "GAOFEN-8",
        "group": "resource",
        "lat": 66.86858711507297,
        "lon": 160.80954498050923,
        "alt_km": 435.2304547699041,
        "timestamp": "2025-12-26T10:30:49.916585+00:00",
        "meta_object_name": "GAOFEN-8",
        "meta_object_id": "2015-030A",
        "meta_epoch": "2025-12-26T03:58:39.256032",
        "meta_mean_motion": 15.39025008,
        "meta_eccentricity": 0.0011543,
        "meta_inclination": 97.6905,
        "meta_ra_of_asc_node": 178.9651,
        "meta_arg_of_pericenter": 92.1915,
        "meta_mean_anomaly": 268.0651,
        "meta_ephemeris_type": 0,
        "meta_classification_type": "U",
        "meta_norad_cat_id": 40701,
        "meta_element_set_no": 999,
        "meta_rev_at_epoch": 58477,
        "meta_bstar": 0.00017789,
        "meta_mean_motion_dot": 6.798e-05,
        "meta_mean_motion_ddot": 0,
        "tle_line1": "1 40701U 15030A   25360.16573213  .00006798  00000+0  17789-3 0  9999",
        "tle_line2": "2 40701  97.6905 178.9651 0011543  92.1915 268.0651 15.39025008584770"
      },
      "geometry": {
        "type": "Point",
        "coordinates": [
          160.80954498050923,
          66.86858711507297
        ]
      }
    },
    {
      "type": "Feature",
      "properties": {
        "norad_id": 40718,
        "name": "CARBONITE 1 (CBNT-1)",
        "group": "resource",
        "lat": 57.161998018572554,
        "lon": 12.884554540279433,
        "alt_km": 604.5993204727492,
        "timestamp": "2025-12-26T10:30:49.916596+00:00",
        "meta_object_name": "CARBONITE 1 (CBNT-1)",
        "meta_object_id": "2015-032D",
        "meta_epoch": "2025-12-26T03:29:16.106784",
        "meta_mean_motion": 14.82804843,
        "meta_eccentricity": 0.0015414,
        "meta_inclination": 97.6407,
        "meta_ra_of_asc_node": 180.5996,
        "meta_arg_of_pericenter": 138.164,
        "meta_mean_anomaly": 222.0755,
        "meta_ephemeris_type": 0,
        "meta_classification_type": "U",
        "meta_norad_cat_id": 40718,
        "meta_element_set_no": 999,
        "meta_rev_at_epoch": 56369,
        "meta_bstar": 0.0001732,
        "meta_mean_motion_dot": 1.353e-05,
        "meta_mean_motion_ddot": 0,
        "tle_line1": "1 40718U 15032D   25360.14532531  .00001353  00000+0  17320-3 0  9998",
        "tle_line2": "2 40718  97.6407 180.5996 0015414 138.1640 222.0755 14.82804843563695"
      },
      "geometry": {
        "type": "Point",
        "coordinates": [
          12.884554540279433,
          57.161998018572554
        ]
      }
    },
    {
      "type": "Feature",
      "properties": {
        "norad_id": 40878,
        "name": "YAOGAN-27",
        "group": "resource",
        "lat": -69.69552587574462,
        "lon": 140.63447458963807,
        "alt_km": 1201.2601899400597,
        "timestamp": "2025-12-26T10:30:49.916606+00:00",
        "meta_object_name": "YAOGAN-27",
        "meta_object_id": "2015-040A",
        "meta_epoch": "2025-12-26T05:35:11.424768",
        "meta_mean_motion": 13.16061695,
        "meta_eccentricity": 0.0007563,
        "meta_inclination": 100.1024,
        "meta_ra_of_asc_node": 349.2427,
        "meta_arg_of_pericenter": 253.1817,
        "meta_mean_anomaly": 106.8467,
        "meta_ephemeris_type": 0,
        "meta_classification_type": "U",
        "meta_norad_cat_id": 40878,
        "meta_element_set_no": 999,
        "meta_rev_at_epoch": 49491,
        "meta_bstar": 4.327e-05,
        "meta_mean_motion_dot": -2.6e-07,
        "meta_mean_motion_ddot": 0,
        "tle_line1": "1 40878U 15040A   25360.23277112 -.00000026  00000+0  43270-4 0  9996",
        "tle_line2": "2 40878 100.1024 349.2427 0007563 253.1817 106.8467 13.16061695494913"
      },
      "geometry": {
        "type": "Point",
        "coordinates": [
          140.63447458963807,
          -69.69552587574462
        ]
      }
    },
    {
      "type": "Feature",
      "properties": {
        "norad_id": 40894,
        "name": "GAOFEN-9 01",
        "group": "resource",
        "lat": 26.10268160411297,
        "lon": 35.023872051426046,
        "alt_km": 605.3632248180966,
        "timestamp": "2025-12-26T10:30:49.916617+00:00",
        "meta_object_name": "GAOFEN-9 01",
        "meta_object_id": "2015-047A",
        "meta_epoch": "2025-12-26T05:32:10.172256",
        "meta_mean_motion": 14.82454261,
        "meta_eccentricity": 0.0027286,
        "meta_inclination": 97.6526,
        "meta_ra_of_asc_node": 38.6026,
        "meta_arg_of_pericenter": 350.5428,
        "meta_mean_anomaly": 9.5268,
        "meta_ephemeris_type": 0,
        "meta_classification_type": "U",
        "meta_norad_cat_id": 40894,
        "meta_element_set_no": 999,
        "meta_rev_at_epoch": 55456,
        "meta_bstar": 0.0001434,
        "meta_mean_motion_dot": 1.106e-05,
        "meta_mean_motion_ddot": 0,
        "tle_line1": "1 40894U 15047A   25360.23067329  .00001106  00000+0  14340-3 0  9992",
        "tle_line2": "2 40894  97.6526  38.6026 0027286 350.5428   9.5268 14.82454261554561"
      },
      "geometry": {
        "type": "Point",
        "coordinates": [
          35.023872051426046,
          26.10268160411297
        ]
      }
    }
  ]
}